{
  "type": "FeatureCollection",
  "features": [
    {
      "type": "Feature",
      "geometry": {
        "type": "Polygon",
        "coordinates": [
          [
            [
              37.46045,
              37.21559
            ],
            [
              37.46044,
              37.21567
            ],
            [
              37.46041,
              37.21572
            ],
            [
              37.46035,
              37.21578
            ],
            [
              37.46025,
              37.21588
            ],
            [
              37.46019,
              37.21595
            ],
            [
              37.46006,
              37.21596
            ],
            [
              37.45991,
              37.21595
            ],
            [
              37.45982,
              37.21594
            ],
            [
              37.45971,
              37.21589
            ],
            [
              37.45899,
              37.21479
            ],
            [
              37.45928,
              37.21461
            ],
            [
              37.45938,
              37.21456
            ],
            [
              37.46016,
              37.21567
            ],
            [
              37.46045,
              37.21559
            ]
          ]
        ]
      },
      "properties": {
        "ilceAd": "Şehitkamil",
        "mevkii": "Karaseki",
        "ilId": 49,
        "durum": "1",
        "ilceId": 441,
        "zeminKmdurum": "Ana Taşınmaz",
        "parselNo": "80",
        "mahalleAd": "Güngürge",
        "ozet": "Güngürge-131/80",
        "gittigiParselListe": "",
        "gittigiParselSebep": "",
        "alan": "7.589,98",
        "adaNo": "131",
        "nitelik": "Tarla",
        "ilAd": "Gaziantep",
        "mahalleId": 131746,
        "pafta": "N38-C-05-D-1"
      }
    }
  ]
}