{
  "type": "FeatureCollection",
  "features": [
    {
      "type": "Feature",
      "geometry": {
        "type": "Polygon",
        "coordinates": [
          [
            [
              37.58726,
              37.09607
            ],
            [
              37.58704,
              37.09603
            ],
            [
              37.58694,
              37.09617
            ],
            [
              37.58689,
              37.09628
            ],
            [
              37.58661,
              37.09622
            ],
            [
              37.58631,
              37.09616
            ],
            [
              37.58604,
              37.09608
            ],
            [
              37.58593,
              37.09599
            ],
            [
              37.58572,
              37.09594
            ],
            [
              37.58566,
              37.09589
            ],
            [
              37.5856,
              37.09571
            ],
            [
              37.58548,
              37.09559
            ],
            [
              37.58546,
              37.09555
            ],
            [
              37.5852,
              37.09535
            ],
            [
              37.58489,
              37.09516
            ],
            [
              37.58483,
              37.0951
            ],
            [
              37.58503,
              37.09491
            ],
            [
              37.58558,
              37.09524
            ],
            [
              37.58581,
              37.09514
            ],
            [
              37.58666,
              37.0952
            ],
            [
              37.58681,
              37.09534
            ],
            [
              37.587,
              37.09555
            ],
            [
              37.58708,
              37.09575
            ],
            [
              37.58718,
              37.09595
            ],
            [
              37.58726,
              37.09607
            ]
          ]
        ]
      },
      "properties": {
        "ilceAd": "Şehitkamil",
        "mevkii": "İdeğir",
        "ilId": 49,
        "durum": "1",
        "ilceId": 441,
        "zeminKmdurum": "Ana Taşınmaz",
        "parselNo": "40",
        "mahalleAd": "Yukarı Arıl",
        "ozet": "Yukarı Arıl-142/40",
        "gittigiParselListe": "",
        "gittigiParselSebep": "",
        "alan": "15.383,16",
        "adaNo": "142",
        "nitelik": "Fıstıklık",
        "ilAd": "Gaziantep",
        "mahalleId": 205944,
        "pafta": "N39-D-17-B-1"
      }
    }
  ]
}