{
  "type": "FeatureCollection",
  "features": [
    {
      "type": "Feature",
      "geometry": {
        "type": "Polygon",
        "coordinates": [
          [
            [
              37.42176,
              37.22391
            ],
            [
              37.42155,
              37.22363
            ],
            [
              37.4214,
              37.22337
            ],
            [
              37.42134,
              37.22315
            ],
            [
              37.42166,
              37.22324
            ],
            [
              37.42177,
              37.22328
            ],
            [
              37.42184,
              37.22334
            ],
            [
              37.42192,
              37.22345
            ],
            [
              37.42194,
              37.22347
            ],
            [
              37.422,
              37.22343
            ],
            [
              37.42209,
              37.22352
            ],
            [
              37.42224,
              37.22348
            ],
            [
              37.4225,
              37.22343
            ],
            [
              37.42248,
              37.22334
            ],
            [
              37.42257,
              37.22333
            ],
            [
              37.42269,
              37.2233
            ],
            [
              37.42306,
              37.22328
            ],
            [
              37.42331,
              37.22326
            ],
            [
              37.42343,
              37.22321
            ],
            [
              37.42345,
              37.22306
            ],
            [
              37.42351,
              37.223
            ],
            [
              37.42388,
              37.22294
            ],
            [
              37.42398,
              37.22291
            ],
            [
              37.42402,
              37.22288
            ],
            [
              37.42407,
              37.22278
            ],
            [
              37.42412,
              37.22267
            ],
            [
              37.42421,
              37.22255
            ],
            [
              37.42428,
              37.22252
            ],
            [
              37.42434,
              37.22249
            ],
            [
              37.42435,
              37.22243
            ],
            [
              37.42432,
              37.22239
            ],
            [
              37.42421,
              37.22227
            ],
            [
              37.42421,
              37.22218
            ],
            [
              37.42413,
              37.2216
            ],
            [
              37.42422,
              37.22156
            ],
            [
              37.42434,
              37.22157
            ],
            [
              37.42451,
              37.22161
            ],
            [
              37.42464,
              37.22169
            ],
            [
              37.42476,
              37.22183
            ],
            [
              37.42493,
              37.22192
            ],
            [
              37.42498,
              37.22189
            ],
            [
              37.42498,
              37.22185
            ],
            [
              37.42488,
              37.22175
            ],
            [
              37.42488,
              37.22171
            ],
            [
              37.42493,
              37.22167
            ],
            [
              37.42499,
              37.22167
            ],
            [
              37.42507,
              37.22163
            ],
            [
              37.42513,
              37.22159
            ],
            [
              37.42524,
              37.22143
            ],
            [
              37.42533,
              37.22138
            ],
            [
              37.42547,
              37.22138
            ],
            [
              37.42561,
              37.22138
            ],
            [
              37.42578,
              37.22154
            ],
            [
              37.42667,
              37.22227
            ],
            [
              37.42659,
              37.22242
            ],
            [
              37.42618,
              37.22276
            ],
            [
              37.42622,
              37.22293
            ],
            [
              37.42623,
              37.22304
            ],
            [
              37.42621,
              37.22311
            ],
            [
              37.42597,
              37.22327
            ],
            [
              37.42571,
              37.2234
            ],
            [
              37.42556,
              37.22344
            ],
            [
              37.42577,
              37.22396
            ],
            [
              37.42596,
              37.22458
            ],
            [
              37.4257,
              37.22454
            ],
            [
              37.42538,
              37.22448
            ],
            [
              37.42501,
              37.2244
            ],
            [
              37.42475,
              37.22433
            ],
            [
              37.42454,
              37.22428
            ],
            [
              37.42432,
              37.22434
            ],
            [
              37.42391,
              37.22451
            ],
            [
              37.42374,
              37.22459
            ],
            [
              37.42362,
              37.2247
            ],
            [
              37.42363,
              37.22474
            ],
            [
              37.42347,
              37.22485
            ],
            [
              37.42333,
              37.22489
            ],
            [
              37.42326,
              37.22488
            ],
            [
              37.42313,
              37.22472
            ],
            [
              37.42291,
              37.22478
            ],
            [
              37.4228,
              37.22481
            ],
            [
              37.42281,
              37.22492
            ],
            [
              37.42275,
              37.22498
            ],
            [
              37.42256,
              37.22504
            ],
            [
              37.4226,
              37.22518
            ],
            [
              37.42215,
              37.22517
            ],
            [
              37.42199,
              37.22471
            ],
            [
              37.42199,
              37.22458
            ],
            [
              37.42194,
              37.22455
            ],
            [
              37.42185,
              37.22446
            ],
            [
              37.42183,
              37.2244
            ],
            [
              37.42187,
              37.22432
            ],
            [
              37.42188,
              37.22415
            ],
            [
              37.42176,
              37.22391
            ]
          ]
        ]
      },
      "properties": {
        "ilceAd": "Şehitkamil",
        "mevkii": "Karakoyak",
        "ilId": 49,
        "durum": "1",
        "ilceId": 441,
        "zeminKmdurum": "Ana Taşınmaz",
        "parselNo": "85",
        "mahalleAd": "Yalangöz",
        "ozet": "Yalangöz-103/85",
        "gittigiParselListe": "",
        "gittigiParselSebep": "",
        "alan": "87.600,00",
        "adaNo": "103",
        "nitelik": "Tarla",
        "ilAd": "Gaziantep",
        "mahalleId": 131767,
        "pafta": "N38-C-04-D-2"
      }
    }
  ]
}