{
  "type": "FeatureCollection",
  "features": [
    {
      "type": "Feature",
      "geometry": {
        "type": "Polygon",
        "coordinates": [
          [
            [
              37.21207,
              37.12239
            ],
            [
              37.21233,
              37.12251
            ],
            [
              37.2124,
              37.1226
            ],
            [
              37.21249,
              37.12265
            ],
            [
              37.21261,
              37.12268
            ],
            [
              37.21283,
              37.12269
            ],
            [
              37.21286,
              37.12269
            ],
            [
              37.21288,
              37.12274
            ],
            [
              37.2129,
              37.12276
            ],
            [
              37.21283,
              37.12288
            ],
            [
              37.21269,
              37.1231
            ],
            [
              37.21257,
              37.12323
            ],
            [
              37.2124,
              37.1233
            ],
            [
              37.21218,
              37.1233
            ],
            [
              37.21194,
              37.12323
            ],
            [
              37.21175,
              37.12323
            ],
            [
              37.21145,
              37.12323
            ],
            [
              37.2111,
              37.12333
            ],
            [
              37.21072,
              37.12339
            ],
            [
              37.2107,
              37.12328
            ],
            [
              37.21071,
              37.1231
            ],
            [
              37.21076,
              37.12296
            ],
            [
              37.2108,
              37.12271
            ],
            [
              37.21085,
              37.12258
            ],
            [
              37.21096,
              37.12238
            ],
            [
              37.21111,
              37.12238
            ],
            [
              37.21134,
              37.12237
            ],
            [
              37.2116,
              37.12235
            ],
            [
              37.21178,
              37.12233
            ],
            [
              37.21193,
              37.12235
            ],
            [
              37.21207,
              37.12239
            ]
          ]
        ]
      },
      "properties": {
        "ilceAd": "Şehitkamil",
        "mevkii": "Öteyüz",
        "ilId": 49,
        "durum": "1",
        "ilceId": 441,
        "zeminKmdurum": "Ana Taşınmaz",
        "parselNo": "1",
        "mahalleAd": "Işıklı",
        "ozet": "Işıklı-216/1",
        "gittigiParselListe": "",
        "gittigiParselSebep": "",
        "alan": "16.302,33",
        "adaNo": "216",
        "nitelik": "Tarla",
        "ilAd": "Gaziantep",
        "mahalleId": 131665,
        "pafta": "N38-D-15-D-1"
      }
    }
  ]
}