{
  "type": "FeatureCollection",
  "features": [
    {
      "type": "Feature",
      "geometry": {
        "type": "Polygon",
        "coordinates": [
          [
            [
              37.19485,
              37.14584
            ],
            [
              37.19476,
              37.14592
            ],
            [
              37.19486,
              37.14617
            ],
            [
              37.19496,
              37.14624
            ],
            [
              37.19511,
              37.14624
            ],
            [
              37.19522,
              37.1462
            ],
            [
              37.19538,
              37.14637
            ],
            [
              37.19554,
              37.14663
            ],
            [
              37.19564,
              37.14676
            ],
            [
              37.19526,
              37.14695
            ],
            [
              37.19519,
              37.14694
            ],
            [
              37.19503,
              37.14687
            ],
            [
              37.19496,
              37.14688
            ],
            [
              37.19489,
              37.14692
            ],
            [
              37.1938,
              37.14603
            ],
            [
              37.1938,
              37.14598
            ],
            [
              37.19392,
              37.14559
            ],
            [
              37.19412,
              37.14564
            ],
            [
              37.19452,
              37.14575
            ],
            [
              37.19485,
              37.14584
            ]
          ]
        ]
      },
      "properties": {
        "ilceAd": "Şehitkamil",
        "mevkii": "Köyiçi",
        "ilId": 49,
        "durum": "1",
        "ilceId": 441,
        "zeminKmdurum": "Ana Taşınmaz",
        "parselNo": "1",
        "mahalleAd": "Işıklı",
        "ozet": "Işıklı-151/1",
        "gittigiParselListe": "",
        "gittigiParselSebep": "",
        "alan": "11.623,40",
        "adaNo": "151",
        "nitelik": "Tarla",
        "ilAd": "Gaziantep",
        "mahalleId": 131665,
        "pafta": "N38-D-14-B-2-B"
      }
    }
  ]
}