{
  "type": "FeatureCollection",
  "features": [
    {
      "type": "Feature",
      "geometry": {
        "type": "Polygon",
        "coordinates": [
          [
            [
              37.47634,
              37.20623
            ],
            [
              37.47514,
              37.20754
            ],
            [
              37.47414,
              37.20709
            ],
            [
              37.47445,
              37.20664
            ],
            [
              37.47482,
              37.20594
            ],
            [
              37.47496,
              37.20558
            ],
            [
              37.47513,
              37.20564
            ],
            [
              37.47517,
              37.20557
            ],
            [
              37.47634,
              37.20623
            ]
          ]
        ]
      },
      "properties": {
        "ilceAd": "Şehitkamil",
        "mevkii": "",
        "ilId": 49,
        "durum": "1",
        "ilceId": 441,
        "zeminKmdurum": "Ana Taşınmaz",
        "parselNo": "7",
        "mahalleAd": "Güngürge",
        "ozet": "Güngürge-108/7",
        "gittigiParselListe": "",
        "gittigiParselSebep": "",
        "alan": "21.913,16",
        "adaNo": "108",
        "nitelik": "Tarla",
        "ilAd": "Gaziantep",
        "mahalleId": 131746,
        "pafta": "N38-C-05-C-4"
      }
    },
    {
      "type": "Feature",
      "geometry": {
        "type": "Polygon",
        "coordinates": [
          [
            [
              37.46045,
              37.21559
            ],
            [
              37.46044,
              37.21567
            ],
            [
              37.46041,
              37.21572
            ],
            [
              37.46035,
              37.21578
            ],
            [
              37.46025,
              37.21588
            ],
            [
              37.46019,
              37.21595
            ],
            [
              37.46006,
              37.21596
            ],
            [
              37.45991,
              37.21595
            ],
            [
              37.45982,
              37.21594
            ],
            [
              37.45971,
              37.21589
            ],
            [
              37.45899,
              37.21479
            ],
            [
              37.45928,
              37.21461
            ],
            [
              37.45938,
              37.21456
            ],
            [
              37.46016,
              37.21567
            ],
            [
              37.46045,
              37.21559
            ]
          ]
        ]
      },
      "properties": {
        "ilceAd": "Şehitkamil",
        "mevkii": "Karaseki",
        "ilId": 49,
        "durum": "1",
        "ilceId": 441,
        "zeminKmdurum": "Ana Taşınmaz",
        "parselNo": "80",
        "mahalleAd": "Güngürge",
        "ozet": "Güngürge-131/80",
        "gittigiParselListe": "",
        "gittigiParselSebep": "",
        "alan": "7.589,98",
        "adaNo": "131",
        "nitelik": "Tarla",
        "ilAd": "Gaziantep",
        "mahalleId": 131746,
        "pafta": "N38-C-05-D-1"
      }
    },
    {
      "type": "Feature",
      "geometry": {
        "type": "Polygon",
        "coordinates": [
          [
            [
              37.19485,
              37.14584
            ],
            [
              37.19476,
              37.14592
            ],
            [
              37.19486,
              37.14617
            ],
            [
              37.19496,
              37.14624
            ],
            [
              37.19511,
              37.14624
            ],
            [
              37.19522,
              37.1462
            ],
            [
              37.19538,
              37.14637
            ],
            [
              37.19554,
              37.14663
            ],
            [
              37.19564,
              37.14676
            ],
            [
              37.19526,
              37.14695
            ],
            [
              37.19519,
              37.14694
            ],
            [
              37.19503,
              37.14687
            ],
            [
              37.19496,
              37.14688
            ],
            [
              37.19489,
              37.14692
            ],
            [
              37.1938,
              37.14603
            ],
            [
              37.1938,
              37.14598
            ],
            [
              37.19392,
              37.14559
            ],
            [
              37.19412,
              37.14564
            ],
            [
              37.19452,
              37.14575
            ],
            [
              37.19485,
              37.14584
            ]
          ]
        ]
      },
      "properties": {
        "ilceAd": "Şehitkamil",
        "mevkii": "Köyiçi",
        "ilId": 49,
        "durum": "1",
        "ilceId": 441,
        "zeminKmdurum": "Ana Taşınmaz",
        "parselNo": "1",
        "mahalleAd": "Işıklı",
        "ozet": "Işıklı-151/1",
        "gittigiParselListe": "",
        "gittigiParselSebep": "",
        "alan": "11.623,40",
        "adaNo": "151",
        "nitelik": "Tarla",
        "ilAd": "Gaziantep",
        "mahalleId": 131665,
        "pafta": "N38-D-14-B-2-B"
      }
    },
    {
      "type": "Feature",
      "geometry": {
        "type": "Polygon",
        "coordinates": [
          [
            [
              37.21207,
              37.12239
            ],
            [
              37.21233,
              37.12251
            ],
            [
              37.2124,
              37.1226
            ],
            [
              37.21249,
              37.12265
            ],
            [
              37.21261,
              37.12268
            ],
            [
              37.21283,
              37.12269
            ],
            [
              37.21286,
              37.12269
            ],
            [
              37.21288,
              37.12274
            ],
            [
              37.2129,
              37.12276
            ],
            [
              37.21283,
              37.12288
            ],
            [
              37.21269,
              37.1231
            ],
            [
              37.21257,
              37.12323
            ],
            [
              37.2124,
              37.1233
            ],
            [
              37.21218,
              37.1233
            ],
            [
              37.21194,
              37.12323
            ],
            [
              37.21175,
              37.12323
            ],
            [
              37.21145,
              37.12323
            ],
            [
              37.2111,
              37.12333
            ],
            [
              37.21072,
              37.12339
            ],
            [
              37.2107,
              37.12328
            ],
            [
              37.21071,
              37.1231
            ],
            [
              37.21076,
              37.12296
            ],
            [
              37.2108,
              37.12271
            ],
            [
              37.21085,
              37.12258
            ],
            [
              37.21096,
              37.12238
            ],
            [
              37.21111,
              37.12238
            ],
            [
              37.21134,
              37.12237
            ],
            [
              37.2116,
              37.12235
            ],
            [
              37.21178,
              37.12233
            ],
            [
              37.21193,
              37.12235
            ],
            [
              37.21207,
              37.12239
            ]
          ]
        ]
      },
      "properties": {
        "ilceAd": "Şehitkamil",
        "mevkii": "Öteyüz",
        "ilId": 49,
        "durum": "1",
        "ilceId": 441,
        "zeminKmdurum": "Ana Taşınmaz",
        "parselNo": "1",
        "mahalleAd": "Işıklı",
        "ozet": "Işıklı-216/1",
        "gittigiParselListe": "",
        "gittigiParselSebep": "",
        "alan": "16.302,33",
        "adaNo": "216",
        "nitelik": "Tarla",
        "ilAd": "Gaziantep",
        "mahalleId": 131665,
        "pafta": "N38-D-15-D-1"
      }
    },
    {
      "type": "Feature",
      "geometry": {
        "type": "Polygon",
        "coordinates": [
          [
            [
              37.58649,
              37.00159
            ],
            [
              37.58667,
              37.00154
            ],
            [
              37.58702,
              37.00145
            ],
            [
              37.58724,
              37.00139
            ],
            [
              37.58733,
              37.00138
            ],
            [
              37.58741,
              37.00173
            ],
            [
              37.58764,
              37.00279
            ],
            [
              37.58781,
              37.00355
            ],
            [
              37.58781,
              37.0037
            ],
            [
              37.58784,
              37.00397
            ],
            [
              37.58719,
              37.00408
            ],
            [
              37.58654,
              37.0042
            ],
            [
              37.58654,
              37.00439
            ],
            [
              37.58656,
              37.0048
            ],
            [
              37.58643,
              37.00483
            ],
            [
              37.58629,
              37.0049
            ],
            [
              37.58618,
              37.00497
            ],
            [
              37.58611,
              37.00499
            ],
            [
              37.58584,
              37.00504
            ],
            [
              37.58558,
              37.00508
            ],
            [
              37.58524,
              37.00512
            ],
            [
              37.58503,
              37.00513
            ],
            [
              37.58484,
              37.00517
            ],
            [
              37.58474,
              37.0052
            ],
            [
              37.58469,
              37.00523
            ],
            [
              37.58436,
              37.0051
            ],
            [
              37.58433,
              37.00471
            ],
            [
              37.58435,
              37.00448
            ],
            [
              37.5844,
              37.00425
            ],
            [
              37.5844,
              37.00419
            ],
            [
              37.58431,
              37.00414
            ],
            [
              37.58416,
              37.0041
            ],
            [
              37.58387,
              37.00402
            ],
            [
              37.58373,
              37.00402
            ],
            [
              37.58361,
              37.00404
            ],
            [
              37.58357,
              37.00413
            ],
            [
              37.58355,
              37.00422
            ],
            [
              37.58354,
              37.00428
            ],
            [
              37.58355,
              37.00436
            ],
            [
              37.58338,
              37.00436
            ],
            [
              37.58307,
              37.00435
            ],
            [
              37.5828,
              37.00434
            ],
            [
              37.58268,
              37.00435
            ],
            [
              37.5826,
              37.00442
            ],
            [
              37.58256,
              37.00448
            ],
            [
              37.58253,
              37.00455
            ],
            [
              37.58252,
              37.00465
            ],
            [
              37.58232,
              37.0046
            ],
            [
              37.58179,
              37.00458
            ],
            [
              37.58179,
              37.00452
            ],
            [
              37.58174,
              37.00452
            ],
            [
              37.58171,
              37.00402
            ],
            [
              37.57789,
              37.00393
            ],
            [
              37.57795,
              37.00388
            ],
            [
              37.57798,
              37.0038
            ],
            [
              37.57804,
              37.00365
            ],
            [
              37.57808,
              37.00347
            ],
            [
              37.57812,
              37.00335
            ],
            [
              37.57809,
              37.00318
            ],
            [
              37.5781,
              37.00305
            ],
            [
              37.57813,
              37.00291
            ],
            [
              37.57821,
              37.00272
            ],
            [
              37.57827,
              37.0025
            ],
            [
              37.57831,
              37.00216
            ],
            [
              37.57834,
              37.00189
            ],
            [
              37.5784,
              37.00167
            ],
            [
              37.5784,
              37.00146
            ],
            [
              37.57837,
              37.00118
            ],
            [
              37.57833,
              37.00101
            ],
            [
              37.57812,
              37.00068
            ],
            [
              37.57807,
              37.00059
            ],
            [
              37.57809,
              37.00043
            ],
            [
              37.57829,
              37.00036
            ],
            [
              37.5785,
              37.00027
            ],
            [
              37.57869,
              37.00023
            ],
            [
              37.57872,
              37.00026
            ],
            [
              37.57877,
              37.00036
            ],
            [
              37.57885,
              37.00048
            ],
            [
              37.57891,
              37.00053
            ],
            [
              37.57902,
              37.00048
            ],
            [
              37.57915,
              37.00042
            ],
            [
              37.57926,
              37.0004
            ],
            [
              37.5794,
              37.00044
            ],
            [
              37.57958,
              37.00053
            ],
            [
              37.57975,
              37.00058
            ],
            [
              37.58003,
              37.0006
            ],
            [
              37.58023,
              37.00058
            ],
            [
              37.58034,
              37.00058
            ],
            [
              37.58046,
              37.00058
            ],
            [
              37.58045,
              37.00061
            ],
            [
              37.58037,
              37.00078
            ],
            [
              37.58031,
              37.00088
            ],
            [
              37.58025,
              37.00108
            ],
            [
              37.58025,
              37.0012
            ],
            [
              37.58042,
              37.0013
            ],
            [
              37.58055,
              37.00133
            ],
            [
              37.58069,
              37.00134
            ],
            [
              37.58091,
              37.00135
            ],
            [
              37.58124,
              37.00143
            ],
            [
              37.58165,
              37.0015
            ],
            [
              37.58178,
              37.00149
            ],
            [
              37.58194,
              37.00138
            ],
            [
              37.58221,
              37.00127
            ],
            [
              37.58275,
              37.00107
            ],
            [
              37.58289,
              37.00098
            ],
            [
              37.58288,
              37.0009
            ],
            [
              37.58284,
              37.00079
            ],
            [
              37.58284,
              37.00074
            ],
            [
              37.58288,
              37.00069
            ],
            [
              37.58294,
              37.00066
            ],
            [
              37.58301,
              37.00065
            ],
            [
              37.58313,
              37.00065
            ],
            [
              37.58321,
              37.00064
            ],
            [
              37.58326,
              37.00062
            ],
            [
              37.58329,
              37.00059
            ],
            [
              37.58331,
              37.00055
            ],
            [
              37.58329,
              37.00043
            ],
            [
              37.58326,
              37.00033
            ],
            [
              37.58327,
              37.00023
            ],
            [
              37.58347,
              37.00025
            ],
            [
              37.5836,
              37.00028
            ],
            [
              37.58379,
              37.00033
            ],
            [
              37.58393,
              37.00032
            ],
            [
              37.58403,
              37.00027
            ],
            [
              37.58426,
              37.00026
            ],
            [
              37.58432,
              37.00031
            ],
            [
              37.58434,
              37.00036
            ],
            [
              37.58433,
              37.00042
            ],
            [
              37.58432,
              37.00051
            ],
            [
              37.58434,
              37.00067
            ],
            [
              37.58441,
              37.00096
            ],
            [
              37.58447,
              37.00123
            ],
            [
              37.58452,
              37.00133
            ],
            [
              37.5846,
              37.00139
            ],
            [
              37.58471,
              37.00142
            ],
            [
              37.58484,
              37.00141
            ],
            [
              37.58499,
              37.00137
            ],
            [
              37.58514,
              37.00119
            ],
            [
              37.58535,
              37.00099
            ],
            [
              37.58543,
              37.00121
            ],
            [
              37.58548,
              37.00138
            ],
            [
              37.58561,
              37.00178
            ],
            [
              37.5857,
              37.00208
            ],
            [
              37.58578,
              37.0021
            ],
            [
              37.58589,
              37.00204
            ],
            [
              37.58602,
              37.00191
            ],
            [
              37.58612,
              37.0018
            ],
            [
              37.58623,
              37.00171
            ],
            [
              37.58636,
              37.00164
            ],
            [
              37.58649,
              37.00159
            ]
          ]
        ]
      },
      "properties": {
        "ilceAd": "Şehitkamil",
        "mevkii": "Bostancı",
        "ilId": 49,
        "durum": "1",
        "ilceId": 441,
        "zeminKmdurum": "Ana Taşınmaz",
        "parselNo": "1513",
        "mahalleAd": "Sinan",
        "ozet": "Sinan-/1513",
        "gittigiParselListe": "",
        "gittigiParselSebep": "",
        "alan": "311.200,00",
        "adaNo": "",
        "nitelik": "Ham Toprak",
        "ilAd": "Gaziantep",
        "mahalleId": 131759,
        "pafta": "N39.D.22.C"
      }
    },
    {
      "type": "Feature",
      "geometry": {
        "type": "Polygon",
        "coordinates": [
          [
            [
              37.50809,
              37.1598
            ],
            [
              37.50828,
              37.15989
            ],
            [
              37.50856,
              37.16003
            ],
            [
              37.50797,
              37.16081
            ],
            [
              37.50778,
              37.16071
            ],
            [
              37.5075,
              37.16057
            ],
            [
              37.50809,
              37.1598
            ]
          ]
        ]
      },
      "properties": {
        "ilceAd": "Şehitkamil",
        "mevkii": "Tavşantepe",
        "ilId": 49,
        "durum": "1",
        "ilceId": 441,
        "zeminKmdurum": "Ana Taşınmaz",
        "parselNo": "31",
        "mahalleAd": "Suboğazı",
        "ozet": "Suboğazı-106/31",
        "gittigiParselListe": "",
        "gittigiParselSebep": "",
        "alan": "4.942,12",
        "adaNo": "106",
        "nitelik": "Karışık Meyve Bahçesi",
        "ilAd": "Gaziantep",
        "mahalleId": 131760,
        "pafta": "N39-D-06-D-4"
      }
    },
    {
      "type": "Feature",
      "geometry": {
        "type": "Polygon",
        "coordinates": [
          [
            [
              37.49955,
              37.15769
            ],
            [
              37.49969,
              37.15772
            ],
            [
              37.49989,
              37.15773
            ],
            [
              37.49997,
              37.15877
            ],
            [
              37.50001,
              37.1596
            ],
            [
              37.49959,
              37.15945
            ],
            [
              37.49955,
              37.15769
            ]
          ]
        ]
      },
      "properties": {
        "ilceAd": "Şehitkamil",
        "mevkii": "Tavşantepe",
        "ilId": 49,
        "durum": "1",
        "ilceId": 441,
        "zeminKmdurum": "Ana Taşınmaz",
        "parselNo": "51",
        "mahalleAd": "Suboğazı",
        "ozet": "Suboğazı-106/51",
        "gittigiParselListe": "",
        "gittigiParselSebep": "",
        "alan": "6.771,11",
        "adaNo": "106",
        "nitelik": "Tarla",
        "ilAd": "Gaziantep",
        "mahalleId": 131760,
        "pafta": "N38-C-10-C-3, N39-D-06-D-4"
      }
    },
    {
      "type": "Feature",
      "geometry": {
        "type": "Polygon",
        "coordinates": [
          [
            [
              37.42176,
              37.22391
            ],
            [
              37.42155,
              37.22363
            ],
            [
              37.4214,
              37.22337
            ],
            [
              37.42134,
              37.22315
            ],
            [
              37.42166,
              37.22324
            ],
            [
              37.42177,
              37.22328
            ],
            [
              37.42184,
              37.22334
            ],
            [
              37.42192,
              37.22345
            ],
            [
              37.42194,
              37.22347
            ],
            [
              37.422,
              37.22343
            ],
            [
              37.42209,
              37.22352
            ],
            [
              37.42224,
              37.22348
            ],
            [
              37.4225,
              37.22343
            ],
            [
              37.42248,
              37.22334
            ],
            [
              37.42257,
              37.22333
            ],
            [
              37.42269,
              37.2233
            ],
            [
              37.42306,
              37.22328
            ],
            [
              37.42331,
              37.22326
            ],
            [
              37.42343,
              37.22321
            ],
            [
              37.42345,
              37.22306
            ],
            [
              37.42351,
              37.223
            ],
            [
              37.42388,
              37.22294
            ],
            [
              37.42398,
              37.22291
            ],
            [
              37.42402,
              37.22288
            ],
            [
              37.42407,
              37.22278
            ],
            [
              37.42412,
              37.22267
            ],
            [
              37.42421,
              37.22255
            ],
            [
              37.42428,
              37.22252
            ],
            [
              37.42434,
              37.22249
            ],
            [
              37.42435,
              37.22243
            ],
            [
              37.42432,
              37.22239
            ],
            [
              37.42421,
              37.22227
            ],
            [
              37.42421,
              37.22218
            ],
            [
              37.42413,
              37.2216
            ],
            [
              37.42422,
              37.22156
            ],
            [
              37.42434,
              37.22157
            ],
            [
              37.42451,
              37.22161
            ],
            [
              37.42464,
              37.22169
            ],
            [
              37.42476,
              37.22183
            ],
            [
              37.42493,
              37.22192
            ],
            [
              37.42498,
              37.22189
            ],
            [
              37.42498,
              37.22185
            ],
            [
              37.42488,
              37.22175
            ],
            [
              37.42488,
              37.22171
            ],
            [
              37.42493,
              37.22167
            ],
            [
              37.42499,
              37.22167
            ],
            [
              37.42507,
              37.22163
            ],
            [
              37.42513,
              37.22159
            ],
            [
              37.42524,
              37.22143
            ],
            [
              37.42533,
              37.22138
            ],
            [
              37.42547,
              37.22138
            ],
            [
              37.42561,
              37.22138
            ],
            [
              37.42578,
              37.22154
            ],
            [
              37.42667,
              37.22227
            ],
            [
              37.42659,
              37.22242
            ],
            [
              37.42618,
              37.22276
            ],
            [
              37.42622,
              37.22293
            ],
            [
              37.42623,
              37.22304
            ],
            [
              37.42621,
              37.22311
            ],
            [
              37.42597,
              37.22327
            ],
            [
              37.42571,
              37.2234
            ],
            [
              37.42556,
              37.22344
            ],
            [
              37.42577,
              37.22396
            ],
            [
              37.42596,
              37.22458
            ],
            [
              37.4257,
              37.22454
            ],
            [
              37.42538,
              37.22448
            ],
            [
              37.42501,
              37.2244
            ],
            [
              37.42475,
              37.22433
            ],
            [
              37.42454,
              37.22428
            ],
            [
              37.42432,
              37.22434
            ],
            [
              37.42391,
              37.22451
            ],
            [
              37.42374,
              37.22459
            ],
            [
              37.42362,
              37.2247
            ],
            [
              37.42363,
              37.22474
            ],
            [
              37.42347,
              37.22485
            ],
            [
              37.42333,
              37.22489
            ],
            [
              37.42326,
              37.22488
            ],
            [
              37.42313,
              37.22472
            ],
            [
              37.42291,
              37.22478
            ],
            [
              37.4228,
              37.22481
            ],
            [
              37.42281,
              37.22492
            ],
            [
              37.42275,
              37.22498
            ],
            [
              37.42256,
              37.22504
            ],
            [
              37.4226,
              37.22518
            ],
            [
              37.42215,
              37.22517
            ],
            [
              37.42199,
              37.22471
            ],
            [
              37.42199,
              37.22458
            ],
            [
              37.42194,
              37.22455
            ],
            [
              37.42185,
              37.22446
            ],
            [
              37.42183,
              37.2244
            ],
            [
              37.42187,
              37.22432
            ],
            [
              37.42188,
              37.22415
            ],
            [
              37.42176,
              37.22391
            ]
          ]
        ]
      },
      "properties": {
        "ilceAd": "Şehitkamil",
        "mevkii": "Karakoyak",
        "ilId": 49,
        "durum": "1",
        "ilceId": 441,
        "zeminKmdurum": "Ana Taşınmaz",
        "parselNo": "85",
        "mahalleAd": "Yalangöz",
        "ozet": "Yalangöz-103/85",
        "gittigiParselListe": "",
        "gittigiParselSebep": "",
        "alan": "87.600,00",
        "adaNo": "103",
        "nitelik": "Tarla",
        "ilAd": "Gaziantep",
        "mahalleId": 131767,
        "pafta": "N38-C-04-D-2"
      }
    }
  ]
}