{
  "type": "FeatureCollection",
  "features": [
    {
      "type": "Feature",
      "geometry": {
        "type": "Polygon",
        "coordinates": [
          [
            [
              37.58649,
              37.00159
            ],
            [
              37.58667,
              37.00154
            ],
            [
              37.58702,
              37.00145
            ],
            [
              37.58724,
              37.00139
            ],
            [
              37.58733,
              37.00138
            ],
            [
              37.58741,
              37.00173
            ],
            [
              37.58764,
              37.00279
            ],
            [
              37.58781,
              37.00355
            ],
            [
              37.58781,
              37.0037
            ],
            [
              37.58784,
              37.00397
            ],
            [
              37.58719,
              37.00408
            ],
            [
              37.58654,
              37.0042
            ],
            [
              37.58654,
              37.00439
            ],
            [
              37.58656,
              37.0048
            ],
            [
              37.58643,
              37.00483
            ],
            [
              37.58629,
              37.0049
            ],
            [
              37.58618,
              37.00497
            ],
            [
              37.58611,
              37.00499
            ],
            [
              37.58584,
              37.00504
            ],
            [
              37.58558,
              37.00508
            ],
            [
              37.58524,
              37.00512
            ],
            [
              37.58503,
              37.00513
            ],
            [
              37.58484,
              37.00517
            ],
            [
              37.58474,
              37.0052
            ],
            [
              37.58469,
              37.00523
            ],
            [
              37.58436,
              37.0051
            ],
            [
              37.58433,
              37.00471
            ],
            [
              37.58435,
              37.00448
            ],
            [
              37.5844,
              37.00425
            ],
            [
              37.5844,
              37.00419
            ],
            [
              37.58431,
              37.00414
            ],
            [
              37.58416,
              37.0041
            ],
            [
              37.58387,
              37.00402
            ],
            [
              37.58373,
              37.00402
            ],
            [
              37.58361,
              37.00404
            ],
            [
              37.58357,
              37.00413
            ],
            [
              37.58355,
              37.00422
            ],
            [
              37.58354,
              37.00428
            ],
            [
              37.58355,
              37.00436
            ],
            [
              37.58338,
              37.00436
            ],
            [
              37.58307,
              37.00435
            ],
            [
              37.5828,
              37.00434
            ],
            [
              37.58268,
              37.00435
            ],
            [
              37.5826,
              37.00442
            ],
            [
              37.58256,
              37.00448
            ],
            [
              37.58253,
              37.00455
            ],
            [
              37.58252,
              37.00465
            ],
            [
              37.58232,
              37.0046
            ],
            [
              37.58179,
              37.00458
            ],
            [
              37.58179,
              37.00452
            ],
            [
              37.58174,
              37.00452
            ],
            [
              37.58171,
              37.00402
            ],
            [
              37.57789,
              37.00393
            ],
            [
              37.57795,
              37.00388
            ],
            [
              37.57798,
              37.0038
            ],
            [
              37.57804,
              37.00365
            ],
            [
              37.57808,
              37.00347
            ],
            [
              37.57812,
              37.00335
            ],
            [
              37.57809,
              37.00318
            ],
            [
              37.5781,
              37.00305
            ],
            [
              37.57813,
              37.00291
            ],
            [
              37.57821,
              37.00272
            ],
            [
              37.57827,
              37.0025
            ],
            [
              37.57831,
              37.00216
            ],
            [
              37.57834,
              37.00189
            ],
            [
              37.5784,
              37.00167
            ],
            [
              37.5784,
              37.00146
            ],
            [
              37.57837,
              37.00118
            ],
            [
              37.57833,
              37.00101
            ],
            [
              37.57812,
              37.00068
            ],
            [
              37.57807,
              37.00059
            ],
            [
              37.57809,
              37.00043
            ],
            [
              37.57829,
              37.00036
            ],
            [
              37.5785,
              37.00027
            ],
            [
              37.57869,
              37.00023
            ],
            [
              37.57872,
              37.00026
            ],
            [
              37.57877,
              37.00036
            ],
            [
              37.57885,
              37.00048
            ],
            [
              37.57891,
              37.00053
            ],
            [
              37.57902,
              37.00048
            ],
            [
              37.57915,
              37.00042
            ],
            [
              37.57926,
              37.0004
            ],
            [
              37.5794,
              37.00044
            ],
            [
              37.57958,
              37.00053
            ],
            [
              37.57975,
              37.00058
            ],
            [
              37.58003,
              37.0006
            ],
            [
              37.58023,
              37.00058
            ],
            [
              37.58034,
              37.00058
            ],
            [
              37.58046,
              37.00058
            ],
            [
              37.58045,
              37.00061
            ],
            [
              37.58037,
              37.00078
            ],
            [
              37.58031,
              37.00088
            ],
            [
              37.58025,
              37.00108
            ],
            [
              37.58025,
              37.0012
            ],
            [
              37.58042,
              37.0013
            ],
            [
              37.58055,
              37.00133
            ],
            [
              37.58069,
              37.00134
            ],
            [
              37.58091,
              37.00135
            ],
            [
              37.58124,
              37.00143
            ],
            [
              37.58165,
              37.0015
            ],
            [
              37.58178,
              37.00149
            ],
            [
              37.58194,
              37.00138
            ],
            [
              37.58221,
              37.00127
            ],
            [
              37.58275,
              37.00107
            ],
            [
              37.58289,
              37.00098
            ],
            [
              37.58288,
              37.0009
            ],
            [
              37.58284,
              37.00079
            ],
            [
              37.58284,
              37.00074
            ],
            [
              37.58288,
              37.00069
            ],
            [
              37.58294,
              37.00066
            ],
            [
              37.58301,
              37.00065
            ],
            [
              37.58313,
              37.00065
            ],
            [
              37.58321,
              37.00064
            ],
            [
              37.58326,
              37.00062
            ],
            [
              37.58329,
              37.00059
            ],
            [
              37.58331,
              37.00055
            ],
            [
              37.58329,
              37.00043
            ],
            [
              37.58326,
              37.00033
            ],
            [
              37.58327,
              37.00023
            ],
            [
              37.58347,
              37.00025
            ],
            [
              37.5836,
              37.00028
            ],
            [
              37.58379,
              37.00033
            ],
            [
              37.58393,
              37.00032
            ],
            [
              37.58403,
              37.00027
            ],
            [
              37.58426,
              37.00026
            ],
            [
              37.58432,
              37.00031
            ],
            [
              37.58434,
              37.00036
            ],
            [
              37.58433,
              37.00042
            ],
            [
              37.58432,
              37.00051
            ],
            [
              37.58434,
              37.00067
            ],
            [
              37.58441,
              37.00096
            ],
            [
              37.58447,
              37.00123
            ],
            [
              37.58452,
              37.00133
            ],
            [
              37.5846,
              37.00139
            ],
            [
              37.58471,
              37.00142
            ],
            [
              37.58484,
              37.00141
            ],
            [
              37.58499,
              37.00137
            ],
            [
              37.58514,
              37.00119
            ],
            [
              37.58535,
              37.00099
            ],
            [
              37.58543,
              37.00121
            ],
            [
              37.58548,
              37.00138
            ],
            [
              37.58561,
              37.00178
            ],
            [
              37.5857,
              37.00208
            ],
            [
              37.58578,
              37.0021
            ],
            [
              37.58589,
              37.00204
            ],
            [
              37.58602,
              37.00191
            ],
            [
              37.58612,
              37.0018
            ],
            [
              37.58623,
              37.00171
            ],
            [
              37.58636,
              37.00164
            ],
            [
              37.58649,
              37.00159
            ]
          ]
        ]
      },
      "properties": {
        "ilceAd": "Şehitkamil",
        "mevkii": "Bostancı",
        "ilId": 49,
        "durum": "1",
        "ilceId": 441,
        "zeminKmdurum": "Ana Taşınmaz",
        "parselNo": "1513",
        "mahalleAd": "Sinan",
        "ozet": "Sinan-/1513",
        "gittigiParselListe": "",
        "gittigiParselSebep": "",
        "alan": "311.200,00",
        "adaNo": "",
        "nitelik": "Ham Toprak",
        "ilAd": "Gaziantep",
        "mahalleId": 131759,
        "pafta": "N39.D.22.C"
      }
    }
  ]
}