{
  "type": "FeatureCollection",
  "features": [
    {
      "type": "Feature",
      "geometry": {
        "type": "Polygon",
        "coordinates": [
          [
            [
              37.49955,
              37.15769
            ],
            [
              37.49969,
              37.15772
            ],
            [
              37.49989,
              37.15773
            ],
            [
              37.49997,
              37.15877
            ],
            [
              37.50001,
              37.1596
            ],
            [
              37.49959,
              37.15945
            ],
            [
              37.49955,
              37.15769
            ]
          ]
        ]
      },
      "properties": {
        "ilceAd": "Şehitkamil",
        "mevkii": "Tavşantepe",
        "ilId": 49,
        "durum": "1",
        "ilceId": 441,
        "zeminKmdurum": "Ana Taşınmaz",
        "parselNo": "51",
        "mahalleAd": "Suboğazı",
        "ozet": "Suboğazı-106/51",
        "gittigiParselListe": "",
        "gittigiParselSebep": "",
        "alan": "6.771,11",
        "adaNo": "106",
        "nitelik": "Tarla",
        "ilAd": "Gaziantep",
        "mahalleId": 131760,
        "pafta": "N38-C-10-C-3, N39-D-06-D-4"
      }
    }
  ]
}